*******************************************************************************
Ephemeris / WWW_USER Mon Jul 15 19:12:00 2024 Pasadena, USA      / Horizons    
*******************************************************************************
Target body name: (2018 VS1)                      {source: JPL#4}
Center body name: Earth (399)                     {source: DE441}
Center-site name: Gemini South Obs., Cerro Pachon
*******************************************************************************
Start time      : A.D. 2019-Jan-25 23:54:00.0000 UT      
Stop  time      : A.D. 2019-Jan-26 09:56:00.0000 UT      
Step-size       : 1 minutes
*******************************************************************************
Target pole/equ : undefined
Target radii    : undefined                                                    
Center geodetic : 289.2634, -30.2406227, 2.71233  {E-lon(deg),Lat(deg),Alt(km)}
Center cylindric: 289.2634,5517.21435,-3194.81213 {E-lon(deg),Dxy(km),Dz(km)}
Center pole/equ : ITRF93                          {East-longitude positive}
Center radii    : 6378.137, 6378.137, 6356.752 km {Equator_a, b, pole_c}       
Target primary  : Sun
Vis. interferer : MOON (R_eq= 1737.400) km        {source: DE441}
Rel. light bend : Sun                             {source: DE441}
Rel. lght bnd GM: 1.3271E+11 km^3/s^2                                          
Small-body perts: Yes                             {source: SB441-N16}
Atmos refraction: NO (AIRLESS)
RA format       : HMS
Time format     : CAL 
Calendar mode   : Mixed Julian/Gregorian
RTS-only print  : NO       
EOP file        : eop.240715.p241008                                           
EOP coverage    : DATA-BASED 1962-JAN-20 TO 2024-JUL-15. PREDICTS-> 2024-OCT-07
Units conversion: 1 au= 149597870.700 km, c= 299792.458 km/s, 1 day= 86400.0 s 
Table cut-offs 1: Elevation (-90.0deg=NO ),Airmass (>38.000=NO), Daylight (YES)
Table cut-offs 2: Solar elongation (  0.0,180.0=NO ),Local Hour Angle( 0.0=NO )
Table cut-offs 3: RA/DEC angular rate (     0.0=NO )                           
*******************************************************************************
Initial IAU76/J2000 heliocentric ecliptic osculating elements (au, days, deg.):
  EPOCH=  2458427.5 ! 2018-Nov-05.00 (TDB)         Residual RMS= .21634        
   EC= .3907275528854954   QR= .7806320880190512   TP= 2458486.1030618688      
   OM= 55.95483604725189   W=  67.17004921097404   IN= 3.601110299269385       
  Equivalent ICRF heliocentric cartesian coordinates (au, au/d):
   X= 7.595935200506908E-01  Y= 6.354459268576240E-01  Z= 2.586666727482118E-01
  VX=-1.643099138746886E-02 VY= 7.530892270769961E-03 VZ= 4.533522122669557E-03
Asteroid physical parameters (km, seconds, rotational period in hours):        
   GM= n.a.                RAD= n.a.               ROTPER= n.a.                
   H= 26.6                 G= .150                 B-V= n.a.                   
                           ALBEDO= n.a.            STYP= n.a.                  
*******************************************************************************
 Date__(UT)__HR:MN     R.A._________(ICRF)_________DEC
******************************************************
$$SOE
 2019-Jan-26 06:03  m  16 29 56.997706 -16 37 01.93558
 2019-Jan-26 06:04  m  16 29 57.109662 -16 37 02.39021
 2019-Jan-26 06:05  m  16 29 57.221602 -16 37 02.84485
 2019-Jan-26 06:06  m  16 29 57.333525 -16 37 03.29950
 2019-Jan-26 06:07  m  16 29 57.445431 -16 37 03.75416
 2019-Jan-26 06:08  m  16 29 57.557320 -16 37 04.20883
 2019-Jan-26 06:09  m  16 29 57.669192 -16 37 04.66351
 2019-Jan-26 06:10  m  16 29 57.781047 -16 37 05.11819
 2019-Jan-26 06:11  m  16 29 57.892885 -16 37 05.57289
 2019-Jan-26 06:12  m  16 29 58.004706 -16 37 06.02759
 2019-Jan-26 06:13  m  16 29 58.116510 -16 37 06.48230
 2019-Jan-26 06:14  m  16 29 58.228297 -16 37 06.93701
 2019-Jan-26 06:15  m  16 29 58.340067 -16 37 07.39173
 2019-Jan-26 06:16  m  16 29 58.451820 -16 37 07.84646
 2019-Jan-26 06:17  m  16 29 58.563556 -16 37 08.30120
 2019-Jan-26 06:18  m  16 29 58.675274 -16 37 08.75594
 2019-Jan-26 06:19  m  16 29 58.786976 -16 37 09.21069
 2019-Jan-26 06:20  m  16 29 58.898661 -16 37 09.66544
 2019-Jan-26 06:21  m  16 29 59.010328 -16 37 10.12020
 2019-Jan-26 06:22  m  16 29 59.121978 -16 37 10.57496
 2019-Jan-26 06:23  m  16 29 59.233612 -16 37 11.02972
 2019-Jan-26 06:24  m  16 29 59.345228 -16 37 11.48449
 2019-Jan-26 06:25  m  16 29 59.456827 -16 37 11.93927
 2019-Jan-26 06:26  m  16 29 59.568409 -16 37 12.39404
 2019-Jan-26 06:27  m  16 29 59.679973 -16 37 12.84882
 2019-Jan-26 06:28  m  16 29 59.791521 -16 37 13.30360
 2019-Jan-26 06:29  m  16 29 59.903051 -16 37 13.75839
 2019-Jan-26 06:30  m  16 30 00.014564 -16 37 14.21318
 2019-Jan-26 06:31  m  16 30 00.126060 -16 37 14.66797
 2019-Jan-26 06:32  m  16 30 00.237539 -16 37 15.12276
 2019-Jan-26 06:33  m  16 30 00.349000 -16 37 15.57755
 2019-Jan-26 06:34  m  16 30 00.460444 -16 37 16.03234
 2019-Jan-26 06:35  m  16 30 00.571871 -16 37 16.48713
 2019-Jan-26 06:36  m  16 30 00.683281 -16 37 16.94193
 2019-Jan-26 06:37  m  16 30 00.794674 -16 37 17.39672
 2019-Jan-26 06:38  m  16 30 00.906049 -16 37 17.85151
 2019-Jan-26 06:39  m  16 30 01.017407 -16 37 18.30630
 2019-Jan-26 06:40  m  16 30 01.128748 -16 37 18.76109
 2019-Jan-26 06:41  m  16 30 01.240072 -16 37 19.21588
 2019-Jan-26 06:42  m  16 30 01.351378 -16 37 19.67067
 2019-Jan-26 06:43  m  16 30 01.462667 -16 37 20.12546
 2019-Jan-26 06:44  m  16 30 01.573939 -16 37 20.58024
 2019-Jan-26 06:45  m  16 30 01.685194 -16 37 21.03502
 2019-Jan-26 06:46  m  16 30 01.796431 -16 37 21.48980
 2019-Jan-26 06:47  m  16 30 01.907651 -16 37 21.94457
 2019-Jan-26 06:48  m  16 30 02.018854 -16 37 22.39934
 2019-Jan-26 06:49  m  16 30 02.130039 -16 37 22.85411
 2019-Jan-26 06:50  m  16 30 02.241207 -16 37 23.30887
 2019-Jan-26 06:51  m  16 30 02.352358 -16 37 23.76363
 2019-Jan-26 06:52  m  16 30 02.463492 -16 37 24.21838
 2019-Jan-26 06:53  m  16 30 02.574608 -16 37 24.67313
 2019-Jan-26 06:54  m  16 30 02.685707 -16 37 25.12788
 2019-Jan-26 06:55  m  16 30 02.796789 -16 37 25.58261
 2019-Jan-26 06:56  m  16 30 02.907854 -16 37 26.03734
 2019-Jan-26 06:57  m  16 30 03.018901 -16 37 26.49207
 2019-Jan-26 06:58  m  16 30 03.129931 -16 37 26.94679
 2019-Jan-26 06:59  m  16 30 03.240944 -16 37 27.40150
 2019-Jan-26 07:00  m  16 30 03.351939 -16 37 27.85620
 2019-Jan-26 07:01  m  16 30 03.462918 -16 37 28.31090
 2019-Jan-26 07:02  m  16 30 03.573879 -16 37 28.76558
 2019-Jan-26 07:03  m  16 30 03.684822 -16 37 29.22026
 2019-Jan-26 07:04  m  16 30 03.795749 -16 37 29.67493
 2019-Jan-26 07:05  m  16 30 03.906658 -16 37 30.12960
 2019-Jan-26 07:06  m  16 30 04.017550 -16 37 30.58425
 2019-Jan-26 07:07  m  16 30 04.128425 -16 37 31.03889
 2019-Jan-26 07:08  m  16 30 04.239282 -16 37 31.49353
 2019-Jan-26 07:09  m  16 30 04.350122 -16 37 31.94815
 2019-Jan-26 07:10  m  16 30 04.460945 -16 37 32.40276
 2019-Jan-26 07:11  m  16 30 04.571751 -16 37 32.85736
 2019-Jan-26 07:12  m  16 30 04.682540 -16 37 33.31195
 2019-Jan-26 07:13  m  16 30 04.793311 -16 37 33.76653
 2019-Jan-26 07:14  m  16 30 04.904065 -16 37 34.22110
 2019-Jan-26 07:15  m  16 30 05.014802 -16 37 34.67565
 2019-Jan-26 07:16  m  16 30 05.125522 -16 37 35.13020
 2019-Jan-26 07:17  m  16 30 05.236225 -16 37 35.58473
 2019-Jan-26 07:18  m  16 30 05.346910 -16 37 36.03924
 2019-Jan-26 07:19  m  16 30 05.457579 -16 37 36.49375
 2019-Jan-26 07:20  m  16 30 05.568230 -16 37 36.94824
 2019-Jan-26 07:21  m  16 30 05.678864 -16 37 37.40271
 2019-Jan-26 07:22  m  16 30 05.789481 -16 37 37.85718
 2019-Jan-26 07:23  m  16 30 05.900081 -16 37 38.31162
 2019-Jan-26 07:24  m  16 30 06.010663 -16 37 38.76606
 2019-Jan-26 07:25  m  16 30 06.121229 -16 37 39.22047
 2019-Jan-26 07:26  m  16 30 06.231777 -16 37 39.67487
 2019-Jan-26 07:27  m  16 30 06.342309 -16 37 40.12926
 2019-Jan-26 07:28  m  16 30 06.452823 -16 37 40.58363
 2019-Jan-26 07:29  m  16 30 06.563320 -16 37 41.03798
 2019-Jan-26 07:30  m  16 30 06.673801 -16 37 41.49232
 2019-Jan-26 07:31  m  16 30 06.784264 -16 37 41.94664
 2019-Jan-26 07:32  m  16 30 06.894710 -16 37 42.40094
 2019-Jan-26 07:33  m  16 30 07.005139 -16 37 42.85522
 2019-Jan-26 07:34  m  16 30 07.115551 -16 37 43.30949
 2019-Jan-26 07:35  m  16 30 07.225947 -16 37 43.76374
 2019-Jan-26 07:36  m  16 30 07.336325 -16 37 44.21797
 2019-Jan-26 07:37  m  16 30 07.446686 -16 37 44.67218
 2019-Jan-26 07:38  m  16 30 07.557030 -16 37 45.12637
 2019-Jan-26 07:39  m  16 30 07.667358 -16 37 45.58054
 2019-Jan-26 07:40  m  16 30 07.777668 -16 37 46.03469
 2019-Jan-26 07:41  m  16 30 07.887962 -16 37 46.48882
 2019-Jan-26 07:42  m  16 30 07.998239 -16 37 46.94293
 2019-Jan-26 07:43  m  16 30 08.108499 -16 37 47.39702
 2019-Jan-26 07:44  m  16 30 08.218742 -16 37 47.85109
 2019-Jan-26 07:45  m  16 30 08.328968 -16 37 48.30514
 2019-Jan-26 07:46  m  16 30 08.439178 -16 37 48.75916
 2019-Jan-26 07:47  m  16 30 08.549370 -16 37 49.21317
 2019-Jan-26 07:48  m  16 30 08.659546 -16 37 49.66715
 2019-Jan-26 07:49  m  16 30 08.769706 -16 37 50.12111
 2019-Jan-26 07:50  m  16 30 08.879848 -16 37 50.57504
 2019-Jan-26 07:51  m  16 30 08.989974 -16 37 51.02895
 2019-Jan-26 07:52  m  16 30 09.100083 -16 37 51.48284
 2019-Jan-26 07:53  m  16 30 09.210175 -16 37 51.93671
 2019-Jan-26 07:54  m  16 30 09.320251 -16 37 52.39055
 2019-Jan-26 07:55  m  16 30 09.430310 -16 37 52.84437
 2019-Jan-26 07:56  m  16 30 09.540353 -16 37 53.29816
 2019-Jan-26 07:57  m  16 30 09.650378 -16 37 53.75192
 2019-Jan-26 07:58  m  16 30 09.760388 -16 37 54.20566
 2019-Jan-26 07:59  m  16 30 09.870381 -16 37 54.65938
 2019-Jan-26 08:00  m  16 30 09.980357 -16 37 55.11307
 2019-Jan-26 08:01  m  16 30 10.090317 -16 37 55.56673
 2019-Jan-26 08:02  m  16 30 10.200260 -16 37 56.02037
 2019-Jan-26 08:03  m  16 30 10.310187 -16 37 56.47398
 2019-Jan-26 08:04  m  16 30 10.420097 -16 37 56.92756
 2019-Jan-26 08:05  m  16 30 10.529991 -16 37 57.38111
